HIMAWARI-8              
1 40267U 14060A   23236.93364057 -.00000271  00000+0  00000+0 0  9992
2 40267   0.0355 293.3073 0000757 225.3118 291.0820  1.00269957 32457
